STARLINK-31932          
1 59929U 24106H   26068.33334491  .00005463  00000+0  20791-3 0  9998
2 59929  43.0026 331.3327 0001588 281.5974  95.7698 15.27579229  5773
HYPERFIELD-1A           
1 60562U 24149CY  26068.76488211  .00008569  00000+0  30052-3 0  9998
2 60562  97.3842 149.5066 0003865 313.7844  46.3076 15.29681349 86836
